{"type": "FeatureCollection", "features": [ {"type": "Feature", "properties": {"norad_id": 33492, "name": "GOSAT (IBUKI)", "group": "resource", "lat": -58.53542779261796, "lon": -101.0665242901149, "alt_km": 676.6209860944136, "timestamp": "2025-12-09T16:56:36.236774+00:00", "meta": {"OBJECT_NAME": "GOSAT (IBUKI)", "OBJECT_ID": "2009-002A", "EPOCH": "2025-12-09T07:40:26.125248", "MEAN_MOTION": 14.67545588, "ECCENTRICITY": 9.52e-05, "INCLINATION": 98.0769, "RA_OF_ASC_NODE": 91.9706, "ARG_OF_PERICENTER": 87.6966, "MEAN_ANOMALY": 272.4348, "EPHEMERIS_TYPE": 0, "CLASSIFICATION_TYPE": "U", "NORAD_CAT_ID": 33492, "ELEMENT_SET_NO": 999, "REV_AT_EPOCH": 90361, "BSTAR": 0.00031399, "MEAN_MOTION_DOT": 1.733e-05, "MEAN_MOTION_DDOT": 0}, "tle": {"line1": "1 33492U 09002A   25343.31974682  .00001733  00000+0  31399-3 0  9990", "line2": "2 33492  98.0769  91.9706 0000952  87.6966 272.4348 14.67545588903614"}}, "geometry": {"type": "Point", "coordinates": [-101.0665242901149, -58.53542779261796]}}, {"type": "Feature", "properties": {"norad_id": 35681, "name": "DEIMOS-1", "group": "resource", "lat": -55.89626802193972, "lon": -47.097853943564836, "alt_km": 654.0925056710639, "timestamp": "2025-12-09T16:56:36.236786+00:00", "meta": {"OBJECT_NAME": "DEIMOS-1", "OBJECT_ID": "2009-041A", "EPOCH": "2025-12-09T12:37:03.758880", "MEAN_MOTION": 14.74944275, "ECCENTRICITY": 0.0002716, "INCLINATION": 97.7147, "RA_OF_ASC_NODE": 144.2784, "ARG_OF_PERICENTER": 84.5608, "MEAN_ANOMALY": 275.5911, "EPHEMERIS_TYPE": 0, "CLASSIFICATION_TYPE": "U", "NORAD_CAT_ID": 35681, "ELEMENT_SET_NO": 999, "REV_AT_EPOCH": 87892, "BSTAR": 0.00014579, "MEAN_MOTION_DOT": 9.32e-06, "MEAN_MOTION_DDOT": 0}, "tle": {"line1": "1 35681U 09041A   25343.52573795  .00000932  00000+0  14579-3 0  9999", "line2": "2 35681  97.7147 144.2784 0002716  84.5608 275.5911 14.74944275878928"}}, "geometry": {"type": "Point", "coordinates": [-47.097853943564836, -55.89626802193972]}}, {"type": "Feature", "properties": {"norad_id": 35682, "name": "DUBAISAT-1", "group": "resource", "lat": 4.663690160818276, "lon": -64.91392301191254, "alt_km": 654.7833854209603, "timestamp": "2025-12-09T16:56:36.236797+00:00", "meta": {"OBJECT_NAME": "DUBAISAT-1", "OBJECT_ID": "2009-041B", "EPOCH": "2025-12-09T08:00:29.522592", "MEAN_MOTION": 14.74589657, "ECCENTRICITY": 0.0009787, "INCLINATION": 97.9789, "RA_OF_ASC_NODE": 114.0638, "ARG_OF_PERICENTER": 326.349, "MEAN_ANOMALY": 33.7096, "EPHEMERIS_TYPE": 0, "CLASSIFICATION_TYPE": "U", "NORAD_CAT_ID": 35682, "ELEMENT_SET_NO": 999, "REV_AT_EPOCH": 87711, "BSTAR": 0.00037991, "MEAN_MOTION_DOT": 2.483e-05, "MEAN_MOTION_DDOT": 0}, "tle": {"line1": "1 35682U 09041B   25343.33367503  .00002483  00000+0  37991-3 0  9993", "line2": "2 35682  97.9789 114.0638 0009787 326.3490  33.7096 14.74589657877114"}}, "geometry": {"type": "Point", "coordinates": [-64.91392301191254, 4.663690160818276]}}, {"type": "Feature", "properties": {"norad_id": 35931, "name": "OCEANSAT-2", "group": "resource", "lat": 81.7547648083231, "lon": -109.16311686141289, "alt_km": 878.2066985530455, "timestamp": "2025-12-09T16:56:36.236808+00:00", "meta": {"OBJECT_NAME": "OCEANSAT-2", "OBJECT_ID": "2009-051A", "EPOCH": "2025-12-09T11:21:59.746752", "MEAN_MOTION": 13.99625445, "ECCENTRICITY": 0.0016339, "INCLINATION": 98.2225, "RA_OF_ASC_NODE": 344.4055, "ARG_OF_PERICENTER": 53.5819, "MEAN_ANOMALY": 306.6852, "EPHEMERIS_TYPE": 0, "CLASSIFICATION_TYPE": "U", "NORAD_CAT_ID": 35931, "ELEMENT_SET_NO": 999, "REV_AT_EPOCH": 85279, "BSTAR": -6.9659e-05, "MEAN_MOTION_DOT": -1.39e-06, "MEAN_MOTION_DDOT": 0}, "tle": {"line1": "1 35931U 09051A   25343.47360818 -.00000139  00000+0 -69659-4 0  9993", "line2": "2 35931  98.2225 344.4055 0016339  53.5819 306.6852 13.99625445852798"}}, "geometry": {"type": "Point", "coordinates": [-109.16311686141289, 81.7547648083231]}}, {"type": "Feature", "properties": {"norad_id": 35946, "name": "WORLDVIEW-2 (WV-2)", "group": "resource", "lat": 22.92066831242704, "lon": -121.55239346422746, "alt_km": 765.3388656650795, "timestamp": "2025-12-09T16:56:36.236819+00:00", "meta": {"OBJECT_NAME": "WORLDVIEW-2 (WV-2)", "OBJECT_ID": "2009-055A", "EPOCH": "2025-12-09T11:12:22.860000", "MEAN_MOTION": 14.37650732, "ECCENTRICITY": 0.0005364, "INCLINATION": 98.4763, "RA_OF_ASC_NODE": 54.5967, "ARG_OF_PERICENTER": 74.8439, "MEAN_ANOMALY": 285.3341, "EPHEMERIS_TYPE": 0, "CLASSIFICATION_TYPE": "U", "NORAD_CAT_ID": 35946, "ELEMENT_SET_NO": 999, "REV_AT_EPOCH": 84838, "BSTAR": 0.00013302, "MEAN_MOTION_DOT": 3.56e-06, "MEAN_MOTION_DDOT": 0}, "tle": {"line1": "1 35946U 09055A   25343.46693125  .00000356  00000+0  13302-3 0  9994", "line2": "2 35946  98.4763  54.5967 0005364  74.8439 285.3341 14.37650732848380"}}, "geometry": {"type": "Point", "coordinates": [-121.55239346422746, 22.92066831242704]}}, {"type": "Feature", "properties": {"norad_id": 36036, "name": "SMOS", "group": "resource", "lat": 10.189598658466362, "lon": -9.671848912362304, "alt_km": 760.8379175396049, "timestamp": "2025-12-09T16:56:36.236829+00:00", "meta": {"OBJECT_NAME": "SMOS", "OBJECT_ID": "2009-059A", "EPOCH": "2025-12-09T11:09:16.407072", "MEAN_MOTION": 14.39737201, "ECCENTRICITY": 0.000111, "INCLINATION": 98.4382, "RA_OF_ASC_NODE": 168.5617, "ARG_OF_PERICENTER": 84.4933, "MEAN_ANOMALY": 275.6382, "EPHEMERIS_TYPE": 0, "CLASSIFICATION_TYPE": "U", "NORAD_CAT_ID": 36036, "ELEMENT_SET_NO": 999, "REV_AT_EPOCH": 84615, "BSTAR": 0.00024022, "MEAN_MOTION_DOT": 7.09e-06, "MEAN_MOTION_DDOT": 0}, "tle": {"line1": "1 36036U 09059A   25343.46477323  .00000709  00000+0  24022-3 0  9992", "line2": "2 36036  98.4382 168.5617 0001110  84.4933 275.6382 14.39737201846156"}}, "geometry": {"type": "Point", "coordinates": [-9.671848912362304, 10.189598658466362]}}, {"type": "Feature", "properties": {"norad_id": 36110, "name": "YAOGAN-7", "group": "resource", "lat": -58.787212863325195, "lon": -121.05321686105611, "alt_km": 627.3473030527648, "timestamp": "2025-12-09T16:56:36.236840+00:00", "meta": {"OBJECT_NAME": "YAOGAN-7", "OBJECT_ID": "2009-069A", "EPOCH": "2025-12-09T05:50:11.993568", "MEAN_MOTION": 14.77724948, "ECCENTRICITY": 0.0023477, "INCLINATION": 98.0303, "RA_OF_ASC_NODE": 225.0126, "ARG_OF_PERICENTER": 293.2001, "MEAN_ANOMALY": 66.6736, "EPHEMERIS_TYPE": 0, "CLASSIFICATION_TYPE": "U", "NORAD_CAT_ID": 36110, "ELEMENT_SET_NO": 999, "REV_AT_EPOCH": 86157, "BSTAR": 0.00018231, "MEAN_MOTION_DOT": 1.259e-05, "MEAN_MOTION_DDOT": 0}, "tle": {"line1": "1 36110U 09069A   25343.24319437  .00001259  00000+0  18231-3 0  9999", "line2": "2 36110  98.0303 225.0126 0023477 293.2001  66.6736 14.77724948861578"}}, "geometry": {"type": "Point", "coordinates": [-121.05321686105611, -58.787212863325195]}}, {"type": "Feature", "properties": {"norad_id": 36605, "name": "TANDEM-X", "group": "resource", "lat": 81.3226104926191, "lon": -131.90205002280575, "alt_km": 499.5257020658364, "timestamp": "2025-12-09T16:56:36.236872+00:00", "meta": {"OBJECT_NAME": "TANDEM-X", "OBJECT_ID": "2010-030A", "EPOCH": "2025-12-08T13:39:18.929376", "MEAN_MOTION": 15.19159019, "ECCENTRICITY": 0.0002067, "INCLINATION": 97.4453, "RA_OF_ASC_NODE": 348.0112, "ARG_OF_PERICENTER": 89.3333, "MEAN_ANOMALY": 270.8138, "EPHEMERIS_TYPE": 0, "CLASSIFICATION_TYPE": "U", "NORAD_CAT_ID": 36605, "ELEMENT_SET_NO": 999, "REV_AT_EPOCH": 85770, "BSTAR": 0.00014235, "MEAN_MOTION_DOT": 2.924e-05, "MEAN_MOTION_DDOT": 0}, "tle": {"line1": "1 36605U 10030A   25342.56896909  .00002924  00000+0  14235-3 0  9996", "line2": "2 36605  97.4453 348.0112 0002067  89.3333 270.8138 15.19159019857704"}}, "geometry": {"type": "Point", "coordinates": [-131.90205002280575, 81.3226104926191]}}, {"type": "Feature", "properties": {"norad_id": 36795, "name": "CARTOSAT-2B", "group": "resource", "lat": -36.381090804232166, "lon": -152.9500339961538, "alt_km": 645.4274467199257, "timestamp": "2025-12-09T16:56:36.236883+00:00", "meta": {"OBJECT_NAME": "CARTOSAT-2B", "OBJECT_ID": "2010-035A", "EPOCH": "2025-12-09T11:05:45.176352", "MEAN_MOTION": 14.78783211, "ECCENTRICITY": 0.0012942, "INCLINATION": 97.7851, "RA_OF_ASC_NODE": 32.5992, "ARG_OF_PERICENTER": 86.8348, "MEAN_ANOMALY": 273.4344, "EPHEMERIS_TYPE": 0, "CLASSIFICATION_TYPE": "U", "NORAD_CAT_ID": 36795, "ELEMENT_SET_NO": 999, "REV_AT_EPOCH": 83181, "BSTAR": 0.00019205, "MEAN_MOTION_DOT": 1.363e-05, "MEAN_MOTION_DDOT": 0}, "tle": {"line1": "1 36795U 10035A   25343.46232843  .00001363  00000+0  19205-3 0  9990", "line2": "2 36795  97.7851  32.5992 0012942  86.8348 273.4344 14.78783211831814"}}, "geometry": {"type": "Point", "coordinates": [-152.9500339961538, -36.381090804232166]}}, {"type": "Feature", "properties": {"norad_id": 36834, "name": "YAOGAN-10", "group": "resource", "lat": -52.36473376744213, "lon": 173.15571203019405, "alt_km": 622.7414751156048, "timestamp": "2025-12-09T16:56:36.236895+00:00", "meta": {"OBJECT_NAME": "YAOGAN-10", "OBJECT_ID": "2010-038A", "EPOCH": "2025-12-09T13:20:28.062240", "MEAN_MOTION": 14.8458826, "ECCENTRICITY": 0.0001426, "INCLINATION": 97.9141, "RA_OF_ASC_NODE": 3.4, "ARG_OF_PERICENTER": 81.1973, "MEAN_ANOMALY": 70.1089, "EPHEMERIS_TYPE": 0, "CLASSIFICATION_TYPE": "U", "NORAD_CAT_ID": 36834, "ELEMENT_SET_NO": 999, "REV_AT_EPOCH": 82906, "BSTAR": 0.00040002, "MEAN_MOTION_DOT": 3.325e-05, "MEAN_MOTION_DDOT": 0}, "tle": {"line1": "1 36834U 10038A   25343.55588035  .00003325  00000+0  40002-3 0  9993", "line2": "2 36834  97.9141   3.4000 0001426  81.1973  70.1089 14.84588260829062"}}, "geometry": {"type": "Point", "coordinates": [173.15571203019405, -52.36473376744213]}}]}